ONEWEB-0578             
1 56067U 23043X   25148.71722521  .00000065  00000+0  12595-3 0  9998
2 56067  87.9242 320.6543 0001912  89.5567 270.5786 13.21825088107443
ONEWEB-0579             
1 56068U 23043Y   25148.70776101  .00000011  00000+0 -45230-5 0  9997
2 56068  87.9241 320.6427 0001594  99.6368 260.4947 13.21825007107450
ONEWEB-0581             
1 56069U 23043Z   25148.68164963  .00000025  00000+0  31003-4 0  9998
2 56069  87.9020 305.4323 0001411  85.5810 274.5482 13.16595682108364
ONEWEB-0609             
1 56070U 23043AA  25148.48578286 -.00000017  00000+0 -79239-4 0  9991
2 56070  87.9042 335.8993 0001839  93.5747 266.5594 13.15550004105856
ONEWEB-0613             
1 56071U 23043AB  25148.78526105 -.00000054  00000+0 -17631-3 0  9996
2 56071  87.9048 335.8498 0001602  96.3918 263.7394 13.15549183105899
ONEWEB-0630             
1 56072U 23043AC  25148.78050511 -.00000065  00000+0 -20778-3 0  9998
2 56072  87.9043 335.8290 0001674 100.8620 259.2699 13.15550112105886
ONEWEB-0632             
1 56073U 23043AD  25148.77574531 -.00000055  00000+0 -18112-3 0  9999
2 56073  87.9046 335.8499 0001547  87.4251 272.7056 13.15550707105887
ONEWEB-0633             
1 56074U 23043AE  25148.76940905 -.00000302  00000+0 -83721-3 0  9994
2 56074  87.9042 335.8195 0001819 105.1740 254.9591 13.15548609105862
